[{"OBJECT_NAME":"YAOGAN-36 02A","OBJECT_ID":"2022-133A","EPOCH":"2026-03-10T00:04:36.049728","MEAN_MOTION":15.23118612,"ECCENTRICITY":0.00301484,"INCLINATION":35.0077,"RA_OF_ASC_NODE":23.5078,"ARG_OF_PERICENTER":29.898,"MEAN_ANOMALY":330.345,"EPHEMERIS_TYPE":0,"CLASSIFICATION_TYPE":"U","NORAD_CAT_ID":54042,"ELEMENT_SET_NO":999,"REV_AT_EPOCH":18962,"BSTAR":0.00070143583,"MEAN_MOTION_DOT":0.00017174,"MEAN_MOTION_DDOT":0},{"OBJECT_NAME":"STARLINK-33757","OBJECT_ID":"2025-087Z","EPOCH":"2026-03-09T15:39:11.029536","MEAN_MOTION":15.30267191,"ECCENTRICITY":0.00018225,"INCLINATION":53.1586,"RA_OF_ASC_NODE":219.7392,"ARG_OF_PERICENTER":109.882,"MEAN_ANOMALY":250.2378,"EPHEMERIS_TYPE":0,"CLASSIFICATION_TYPE":"U","NORAD_CAT_ID":63720,"ELEMENT_SET_NO":999,"REV_AT_EPOCH":4919,"BSTAR":0.0028145315,"MEAN_MOTION_DOT":0.00084123,"MEAN_MOTION_DDOT":0}]
